SL-3 R/B                
1 13403U 82079B   26033.28969223  .00005389  00000+0  21784-3 0  9991
2 13403  81.1436 234.8648 0024248 286.9769  72.8806 15.24287053372301
SL-14 R/B               
1 13553U 82092B   26032.91401064  .00000594  00000+0  63869-4 0  9999
2 13553  82.5695 174.8510 0021674  62.0779  55.8227 14.86623400323619
SL-3 R/B                
1 13819U 83010B   26033.09114694  .00012731  00000+0  26694-3 0  9995
2 13819  81.1012  45.8528 0017400 165.5125 194.6621 15.45096858352444
SL-3 R/B                
1 14208U 83075B   26033.22738492  .00012435  00000+0  33783-3 0  9990
2 14208  97.6119  36.4940 0022087   2.3752 357.7593 15.37474753324705
COSMOS 1536             
1 14699U 84013A   26033.25438321  .00007167  00000+0  29955-3 0  9990
2 14699  82.5477 143.0515 0015366  51.3978 308.8632 15.23332947267225
SL-14 R/B               
1 14820U 84027B   26033.13855576  .00000468  00000+0  50616-4 0  9999
2 14820  82.5411 278.3616 0019547  91.0661 269.2795 14.85940144242356
SL-8 R/B                
1 15483U 85006B   26033.25940980  .00000277  00000+0  10073-3 0  9990
2 15483  74.0476 326.3412 0019651 250.7332 261.8318 14.37763896148934
SL-12 R/B(2)            
1 15772U 85042D   26033.12086100  .00000120  00000+0  75471-4 0  9993
2 15772  71.1082 162.8729 0035335 184.7178 347.7551 14.21971282109338
SL-14 R/B               
1 15945U 85069B   26033.33605667  .00000523  00000+0  56417-4 0  9998
2 15945  82.5240  58.1855 0017596 312.9825  46.9915 14.86390155167580
SL-16 R/B               
1 16182U 85097B   26032.99505072  .00000244  00000+0  14649-3 0  9993
2 16182  71.0011 215.6972 0009305 301.6868 226.3988 14.16594458 82174
SL-14 R/B               
1 16496U 86006B   26033.18778656  .00000868  00000+0  89485-4 0  9997
2 16496  82.5278 293.1506 0077500  31.4063 329.1746 14.86762603143937
COSMOS 1743             
1 16719U 86034A   26033.23531286  .00034814  00000+0  49945-3 0  9992
2 16719  82.5342 110.9630 0005347  69.9775 290.2055 15.55954396174739
