CCSDS_OMM_VERS = 2.0
CREATION_DATE  = 
ORIGINATOR     = 

OBJECT_NAME    = SL-3 R/B
OBJECT_ID      = 1982-079B
CENTER_NAME    = EARTH
REF_FRAME      = TEME
TIME_SYSTEM    = UTC
MEAN_ELEMENT_THEORY = SGP/SGP4

EPOCH          = 2026-02-02T06:57:09.408672
MEAN_MOTION    = 15.24287053
ECCENTRICITY   = .00242482
INCLINATION    = 81.1436
RA_OF_ASC_NODE = 234.8648
ARG_OF_PERICENTER = 286.9769
MEAN_ANOMALY   = 72.8806

EPHEMERIS_TYPE = 0
CLASSIFICATION_TYPE = U
NORAD_CAT_ID   = 13403
ELEMENT_SET_NO = 999
REV_AT_EPOCH   = 37230
BSTAR          = .21783942E-3
MEAN_MOTION_DOT = .5389E-4
MEAN_MOTION_DDOT = 0

CCSDS_OMM_VERS = 2.0
CREATION_DATE  = 
ORIGINATOR     = 

OBJECT_NAME    = SL-14 R/B
OBJECT_ID      = 1982-092B
CENTER_NAME    = EARTH
REF_FRAME      = TEME
TIME_SYSTEM    = UTC
MEAN_ELEMENT_THEORY = SGP/SGP4

EPOCH          = 2026-02-01T21:56:10.519296
MEAN_MOTION    = 14.86623400
ECCENTRICITY   = .00216741
INCLINATION    = 82.5695
RA_OF_ASC_NODE = 174.8510
ARG_OF_PERICENTER = 62.0779
MEAN_ANOMALY   = 55.8227

EPHEMERIS_TYPE = 0
CLASSIFICATION_TYPE = U
NORAD_CAT_ID   = 13553
ELEMENT_SET_NO = 999
REV_AT_EPOCH   = 32361
BSTAR          = .63869158E-4
MEAN_MOTION_DOT = .594E-5
MEAN_MOTION_DDOT = 0

CCSDS_OMM_VERS = 2.0
CREATION_DATE  = 
ORIGINATOR     = 

OBJECT_NAME    = SL-3 R/B
OBJECT_ID      = 1983-010B
CENTER_NAME    = EARTH
REF_FRAME      = TEME
TIME_SYSTEM    = UTC
MEAN_ELEMENT_THEORY = SGP/SGP4

EPOCH          = 2026-02-02T02:11:15.095616
MEAN_MOTION    = 15.45096858
ECCENTRICITY   = .00174001
INCLINATION    = 81.1012
RA_OF_ASC_NODE = 45.8528
ARG_OF_PERICENTER = 165.5125
MEAN_ANOMALY   = 194.6621

EPHEMERIS_TYPE = 0
CLASSIFICATION_TYPE = U
NORAD_CAT_ID   = 13819
ELEMENT_SET_NO = 999
REV_AT_EPOCH   = 35244
BSTAR          = .26694187E-3
MEAN_MOTION_DOT = .12731E-3
MEAN_MOTION_DDOT = 0

CCSDS_OMM_VERS = 2.0
CREATION_DATE  = 
ORIGINATOR     = 

OBJECT_NAME    = SL-3 R/B
OBJECT_ID      = 1983-075B
CENTER_NAME    = EARTH
REF_FRAME      = TEME
TIME_SYSTEM    = UTC
MEAN_ELEMENT_THEORY = SGP/SGP4

EPOCH          = 2026-02-02T05:27:26.057088
MEAN_MOTION    = 15.37474753
ECCENTRICITY   = .0022087
INCLINATION    = 97.6119
RA_OF_ASC_NODE = 36.4940
ARG_OF_PERICENTER = 2.3752
MEAN_ANOMALY   = 357.7593

EPHEMERIS_TYPE = 0
CLASSIFICATION_TYPE = U
NORAD_CAT_ID   = 14208
ELEMENT_SET_NO = 999
REV_AT_EPOCH   = 32470
BSTAR          = .33782745E-3
MEAN_MOTION_DOT = .12435E-3
MEAN_MOTION_DDOT = 0

CCSDS_OMM_VERS = 2.0
CREATION_DATE  = 
ORIGINATOR     = 

OBJECT_NAME    = COSMOS 1536
OBJECT_ID      = 1984-013A
CENTER_NAME    = EARTH
REF_FRAME      = TEME
TIME_SYSTEM    = UTC
MEAN_ELEMENT_THEORY = SGP/SGP4

EPOCH          = 2026-02-02T06:06:18.709344
MEAN_MOTION    = 15.23332947
ECCENTRICITY   = .0015366
INCLINATION    = 82.5477
RA_OF_ASC_NODE = 143.0515
ARG_OF_PERICENTER = 51.3978
MEAN_ANOMALY   = 308.8632

EPHEMERIS_TYPE = 0
CLASSIFICATION_TYPE = U
NORAD_CAT_ID   = 14699
ELEMENT_SET_NO = 999
REV_AT_EPOCH   = 26722
BSTAR          = .29954501E-3
MEAN_MOTION_DOT = .7167E-4
MEAN_MOTION_DDOT = 0

CCSDS_OMM_VERS = 2.0
CREATION_DATE  = 
ORIGINATOR     = 

OBJECT_NAME    = SL-14 R/B
OBJECT_ID      = 1984-027B
CENTER_NAME    = EARTH
REF_FRAME      = TEME
TIME_SYSTEM    = UTC
MEAN_ELEMENT_THEORY = SGP/SGP4

EPOCH          = 2026-02-02T03:19:31.217664
MEAN_MOTION    = 14.85940144
ECCENTRICITY   = .00195476
INCLINATION    = 82.5411
RA_OF_ASC_NODE = 278.3616
ARG_OF_PERICENTER = 91.0661
MEAN_ANOMALY   = 269.2795

EPHEMERIS_TYPE = 0
CLASSIFICATION_TYPE = U
NORAD_CAT_ID   = 14820
ELEMENT_SET_NO = 999
REV_AT_EPOCH   = 24235
BSTAR          = .50615891E-4
MEAN_MOTION_DOT = .468E-5
MEAN_MOTION_DDOT = 0

CCSDS_OMM_VERS = 2.0
CREATION_DATE  = 
ORIGINATOR     = 

OBJECT_NAME    = SL-8 R/B
OBJECT_ID      = 1985-006B
CENTER_NAME    = EARTH
REF_FRAME      = TEME
TIME_SYSTEM    = UTC
MEAN_ELEMENT_THEORY = SGP/SGP4

EPOCH          = 2026-02-02T06:13:33.006720
MEAN_MOTION    = 14.37763896
ECCENTRICITY   = .00196511
INCLINATION    = 74.0476
RA_OF_ASC_NODE = 326.3412
ARG_OF_PERICENTER = 250.7332
MEAN_ANOMALY   = 261.8318

EPHEMERIS_TYPE = 0
CLASSIFICATION_TYPE = U
NORAD_CAT_ID   = 15483
ELEMENT_SET_NO = 999
REV_AT_EPOCH   = 14893
BSTAR          = .10072629E-3
MEAN_MOTION_DOT = .277E-5
MEAN_MOTION_DDOT = 0

CCSDS_OMM_VERS = 2.0
CREATION_DATE  = 
ORIGINATOR     = 

OBJECT_NAME    = SL-12 R/B(2)
OBJECT_ID      = 1985-042D
CENTER_NAME    = EARTH
REF_FRAME      = TEME
TIME_SYSTEM    = UTC
MEAN_ELEMENT_THEORY = SGP/SGP4

EPOCH          = 2026-02-02T02:54:02.390400
MEAN_MOTION    = 14.21971282
ECCENTRICITY   = .00353352
INCLINATION    = 71.1082
RA_OF_ASC_NODE = 162.8729
ARG_OF_PERICENTER = 184.7178
MEAN_ANOMALY   = 347.7551

EPHEMERIS_TYPE = 0
CLASSIFICATION_TYPE = U
NORAD_CAT_ID   = 15772
ELEMENT_SET_NO = 999
REV_AT_EPOCH   = 10933
BSTAR          = .75470659E-4
MEAN_MOTION_DOT = .12E-5
MEAN_MOTION_DDOT = 0

CCSDS_OMM_VERS = 2.0
CREATION_DATE  = 
ORIGINATOR     = 

OBJECT_NAME    = SL-14 R/B
OBJECT_ID      = 1985-069B
CENTER_NAME    = EARTH
REF_FRAME      = TEME
TIME_SYSTEM    = UTC
MEAN_ELEMENT_THEORY = SGP/SGP4

EPOCH          = 2026-02-02T08:03:55.296288
MEAN_MOTION    = 14.86390155
ECCENTRICITY   = .00175965
INCLINATION    = 82.5240
RA_OF_ASC_NODE = 58.1855
ARG_OF_PERICENTER = 312.9825
MEAN_ANOMALY   = 46.9915

EPHEMERIS_TYPE = 0
CLASSIFICATION_TYPE = U
NORAD_CAT_ID   = 15945
ELEMENT_SET_NO = 999
REV_AT_EPOCH   = 16758
BSTAR          = .5641686E-4
MEAN_MOTION_DOT = .523E-5
MEAN_MOTION_DDOT = 0

CCSDS_OMM_VERS = 2.0
CREATION_DATE  = 
ORIGINATOR     = 

OBJECT_NAME    = SL-16 R/B
OBJECT_ID      = 1985-097B
CENTER_NAME    = EARTH
REF_FRAME      = TEME
TIME_SYSTEM    = UTC
MEAN_ELEMENT_THEORY = SGP/SGP4

EPOCH          = 2026-02-01T23:52:52.382208
MEAN_MOTION    = 14.16594458
ECCENTRICITY   = .00093058
INCLINATION    = 71.0011
RA_OF_ASC_NODE = 215.6972
ARG_OF_PERICENTER = 301.6868
MEAN_ANOMALY   = 226.3988

EPHEMERIS_TYPE = 0
CLASSIFICATION_TYPE = U
NORAD_CAT_ID   = 16182
ELEMENT_SET_NO = 999
REV_AT_EPOCH   = 8217
BSTAR          = .14649386E-3
MEAN_MOTION_DOT = .244E-5
MEAN_MOTION_DDOT = 0

CCSDS_OMM_VERS = 2.0
CREATION_DATE  = 
ORIGINATOR     = 

OBJECT_NAME    = SL-14 R/B
OBJECT_ID      = 1986-006B
CENTER_NAME    = EARTH
REF_FRAME      = TEME
TIME_SYSTEM    = UTC
MEAN_ELEMENT_THEORY = SGP/SGP4

EPOCH          = 2026-02-02T04:30:24.758784
MEAN_MOTION    = 14.86762603
ECCENTRICITY   = .00775002
INCLINATION    = 82.5278
RA_OF_ASC_NODE = 293.1506
ARG_OF_PERICENTER = 31.4063
MEAN_ANOMALY   = 329.1746

EPHEMERIS_TYPE = 0
CLASSIFICATION_TYPE = U
NORAD_CAT_ID   = 16496
ELEMENT_SET_NO = 999
REV_AT_EPOCH   = 14393
BSTAR          = .89484757E-4
MEAN_MOTION_DOT = .868E-5
MEAN_MOTION_DDOT = 0

CCSDS_OMM_VERS = 2.0
CREATION_DATE  = 
ORIGINATOR     = 

OBJECT_NAME    = COSMOS 1743
OBJECT_ID      = 1986-034A
CENTER_NAME    = EARTH
REF_FRAME      = TEME
TIME_SYSTEM    = UTC
MEAN_ELEMENT_THEORY = SGP/SGP4

EPOCH          = 2026-02-02T05:38:51.031104
MEAN_MOTION    = 15.55954396
ECCENTRICITY   = .00053477
INCLINATION    = 82.5342
RA_OF_ASC_NODE = 110.9630
ARG_OF_PERICENTER = 69.9775
MEAN_ANOMALY   = 290.2055

EPHEMERIS_TYPE = 0
CLASSIFICATION_TYPE = U
NORAD_CAT_ID   = 16719
ELEMENT_SET_NO = 999
REV_AT_EPOCH   = 17473
BSTAR          = .49945426E-3
MEAN_MOTION_DOT = .34814E-3
MEAN_MOTION_DDOT = 0

